#cP2017 10 24  0  0  0.00000000      96 ORBIT IGS14 HLM  IGS
## 1972 172800.00000000   900.00000000 58050 0.0000000000000
+   32   G01G02G03G04G05G06G07G08G09G10G11G12G13G14G15G16G17
+        G18G19G20G21G22G23G24G25G26G27G28G29G30G31G32  0  0
+          0  0  0  0  0  0  0  0  0  0  0  0  0  0  0  0  0
+          0  0  0  0  0  0  0  0  0  0  0  0  0  0  0  0  0
+          0  0  0  0  0  0  0  0  0  0  0  0  0  0  0  0  0
++         2  2  2  0  2  2  2  2  2  2  2  2  2  2  2  2  2
++         2  2  2  2  2  2  2  2  2  2  2  2  2  2  2  0  0
++         0  0  0  0  0  0  0  0  0  0  0  0  0  0  0  0  0
++         0  0  0  0  0  0  0  0  0  0  0  0  0  0  0  0  0
++         0  0  0  0  0  0  0  0  0  0  0  0  0  0  0  0  0
%c G  cc GPS ccc cccc cccc cccc cccc ccccc ccccc ccccc ccccc
%c cc cc ccc ccc cccc cccc cccc cccc ccccc ccccc ccccc ccccc
%f  1.2500000  1.025000000  0.00000000000  0.000000000000000
%f  0.0000000  0.000000000  0.00000000000  0.000000000000000
%i    0    0    0    0      0      0      0      0         0
%i    0    0    0    0      0      0      0      0         0
/* RAPID ORBIT COMBINATION FROM WEIGHTED AVERAGE OF:        
/* cod emr esa gfz jpl ngs sio usn whu                      
/* REFERENCED TO IGS TIME (IGST) AND TO WEIGHTED MEAN POLE: 
/* PCV:IGS14_1972 OL/AL:FES2004  NONE     Y  ORB:CMB CLK:CMB
*  2017 10 24 12  0  0.00000000
PG01  17543.467393   5108.388735  19239.356615     -6.059902  8  4  4  82       
PG02 -14525.655958 -22337.187699  -1542.926822    298.509345  9  4  5  63       
PG03  18773.322800  -6757.151312  17490.508753    -51.792894  5  4  6 114       
PG04  11891.339584  13406.719334 -19943.400573 999999.999999
PG05  -9494.019577 -13396.480360 -20938.199773    -24.984772  8  7  7  99       
PG06  -5407.258735 -24204.497471   9513.695744    406.289190  6  2  4  96       
PG07  11127.184109 -10940.843539 -21235.931622    288.999953  8  7  4 110       
PG08  24693.589010   6082.636898  -7797.150980    -78.121905  7  3  3  91       
PG09  21413.883544  -8700.582273 -13123.558211    462.296943  5  5  6 132       
PG10  -9513.543659  23830.017904   6607.971158     95.862970  8  2  1  82       
PG11  22595.432547   6322.827538  11769.416092   -722.944599  8  3  5  86       
PG12 -17542.466256   2273.931877  19582.620571    367.805244  8  5  3  96       
PG13 -19650.297222 -12229.306342 -13122.221556    -93.153546  6  4  4  75       
PG14   3929.051676  15538.939853  21484.006159    -86.969582  6  3  3  57       
PG15 -25968.415294  -3343.044971  -5739.999643   -356.818684  8  5  6 107       
PG16   8069.711051  13083.301669 -21732.263051     36.784194  6  8  5 100       
PG17   6540.774486 -14106.150244  21883.394856   -149.001427  6  5  7 106       
PG18 -15007.005432  21430.037615  -3381.454061    631.804918  9  6  6  75       
PG19  -2312.805765 -14932.787865  21538.226759   -479.494489  7  5  2  77       
PG20 -17862.707848   2902.492688 -19585.963236    490.676835  7  4  7  59       
PG21  -8126.492051  14693.569960 -19778.258525   -468.404886  7  6  7  97       
PG22  16979.031430   1572.555449  20608.155087   -165.558354  8  6  6  75       
PG23  26507.789020  -1606.648920  -3289.700772   -218.311920  9  2  7 105       
PG24 -18733.171293  -7444.415352  17334.283788    -41.328967  8  6    111       
PG25 -18640.898084  14630.359649  11616.434075   -477.961759  6  5  5  86       
PG26    589.911812  20945.268072 -16253.710182   -386.400436  7  5  7  55       
PG27  16234.486237  12254.823088 -17258.002300    340.592886  4  7  4  68       
PG28  13311.339534 -22641.016635   4615.801112    656.688774  8  2  4 100       
PG29 -24433.646470   4010.413013  -9601.663906    547.161715  9  4  6 111       
PG30   3852.317239 -20335.924125 -16553.519414    132.682191  8  2  3  87       
PG31   6630.360882  24570.045886   6894.739409    166.761733  5  8  3  94       
PG32  -3289.163106  15100.465095  21620.841755   -516.642239  5  5  7  78       
*  2017 10 24 12 15  0.00000000
PG01  18486.481467   7021.043927  17728.099275     -6.061901  8  5  4  77       
PG02 -14336.332795 -22542.590900   1269.121852    298.500651  7  4  5  75       
PG03  17833.155973  -4879.684667  19033.251982    -51.788297  5  4  6 105       
PG04   9614.093007  13672.675557 -20926.313722 999999.999999
PG05  -8262.278229 -15382.076312 -20055.127718    -24.983560  9  6  7  52       
PG06  -4620.668764 -23239.251036  12012.356803    406.291091  6  2  4  95       
PG07  12360.854657  -8768.628893 -21594.987408    288.995628  8  7  4 103       
PG08  23650.250481   6293.309547 -10400.938982    -78.123040  7  4  4  91       
PG09  22777.907425  -8477.220592 -10754.939356    462.301658  6  5  6 116       
PG10 -10038.562587  24214.694147   3829.496608     95.870570  8  3  2  86       
PG11  23406.077909   7411.431901   9417.851707   -722.945991  8  3  5  69       
PG12 -16306.065155    285.777462  20753.624979    367.803943  8  5  3  85       
PG13 -18032.670579 -12202.205102 -15308.901875    -93.154079  5  4  4  70       
PG14   1514.485020  15364.406327  21902.256576    -86.970158  6  4  3  81       
PG15 -25210.919755  -3690.095150  -8354.014424   -356.818672  8  5  6 112       
PG16   6634.488110  15023.952970 -20908.052133     36.784127  6  7  5  99       
PG17   8914.262077 -13921.371295  21124.523189   -148.998832  5  5  6 102       
PG18 -15048.081999  20716.034477  -6104.638377    631.805638  9  6  7  76       
PG19    216.058888 -14701.549145  21834.289252   -479.492016  6  4  1  59       
PG20 -17020.195961    783.886910 -20523.052299    490.677543  6  5  7  58       
PG21  -9523.229636  12645.792846 -20533.122469   -468.401825  6  6  7  94       
PG22  15950.886864   3691.226890  21155.104093   -165.569791  7  6  6  63       
PG23  26751.238846  -1338.601967   -502.533921   -218.311963  9  1  7  90       
PG24 -19570.046138  -9150.065151  15531.479051    -41.328391  8  6    117       
PG25 -18044.496010  13250.209714  13966.672020   -477.967450  6  5  4  98       
PG26   -442.691706  22370.703434 -14224.741165   -386.389131  7  4  7  80       
PG27  14187.468715  12356.390114 -18897.197847    340.596561  4  7  4  59       
PG28  13620.201148 -22779.957013   1737.812560    656.691816  9  2  4  78       
PG29 -25361.546000   3769.231563  -6913.041498    547.157588  9  4  6 103       
PG30   4903.239896 -18624.306687 -18218.662238    132.680019  8  3  2  89       
PG31   5967.063442  23852.535585   9568.328904    166.759782  5  7  3 115       
PG32  -5731.770893  15053.543432  21132.685463   -516.645890  5  5  7  84       
*  2017 10 24 12 30  0.00000000
PG01  19427.751113   8719.089607  15911.682371     -6.063919  8  5  3  73       
PG02 -13977.419934 -22500.541482   4059.825126    298.491810  6  4  5  71       
PG03  16920.537050  -2817.124784  20247.537816    -51.783699  4  5  6  88       
PG04   7260.412751  14072.046871 -21557.993310 999999.999999
PG05  -7182.220389 -17321.682216 -18828.160292    -24.982537  9  6  7  86       
PG06  -3635.424959 -22090.217340  14304.401548    406.293010  7  3  4 100       
PG07  13712.464624  -6649.886797 -21574.923186    288.990634  9  7  4 103       
PG08  22335.132124   6577.999377 -12826.348675    -78.123664  5  5  4  97       
PG09  23874.108634  -8306.231174  -8201.586006    462.306408  7  5  5 114       
PG10 -10398.827932  24341.184657    984.599570     95.878131  8  3  2  95       
PG11  24032.166677   8305.939758   6899.231198   -722.948145  8  4  5  85       
PG12 -15125.615996  -1865.016524  21560.788642    367.802374  8  5  3  91       
PG13 -16184.994326 -12246.434633 -17233.794573    -93.154410  4  3  4 102       
PG14   -933.498176  15317.797411  21953.510587    -86.971178  5  4  3  58       
PG15 -24189.929220  -4108.112591 -10828.287334   -356.819148  7  5  6 102       
PG16   5367.934039  16948.740495 -19725.182834     36.784305  6  7  5  95       
PG17  11192.534867 -13869.366991  20012.749947   -148.997017  5  5  6 104       
PG18 -14999.605434  19723.965131  -8719.836008    631.805583 10  6  7  85       
PG19   2763.455108 -14607.035415  21744.461354   -479.490616  6  4  2  45       
PG20 -16247.520747  -1450.842858 -21111.482862    490.679001  5  5  7  87       
PG21 -11052.926055  10610.595325 -20908.238776   -468.398938  6  6  7  81       
PG22  15006.343830   5893.184575  21345.734363   -165.581366  7  6  6  62       
PG23  26696.007330  -1066.182045   2293.085910   -218.312164  9  2  7  91       
PG24 -20365.132750 -10631.014598  13462.786555    -41.329062  8  6  2 102       
PG25 -17406.936585  11613.121819  16071.778775   -477.973135  5  4  4  91       
PG26  -1293.163734  23628.662171 -11949.693765   -386.377880  7  3  7  91       
PG27  11981.343243  12580.273172 -20215.048921    340.600280  4  7  3  47       
PG28  13752.978300 -22655.046984  -1169.895416    656.694610  9  3  4 100       
PG29 -25989.479725   3581.534549  -4105.375689    547.153085  9  4  6 105       
PG30   6121.440025 -16819.269782 -19568.552517    132.677856  8  4  3  93       
PG31   5115.941133  22917.864658  12073.938482    166.757432  5  7  3  96       
PG32  -8098.573907  15128.468291  20281.373124   -516.649530  4  4  7  74       
EOF
